start=new Date('2023-06-25T00:00:00.000Z').valueOf();
sats=[{"RCS_SIZE":"LARGE","ARG_OF_PERICENTER":"274.0762","OBJECT_TYPE":"PAYLOAD","FILE":"3941759","MEAN_ELEMENT_THEORY":"SGP4","PERIAPSIS":"356.453","EPOCH":"2023-06-24T13:52:30.169344","MEAN_MOTION":"15.69945445","RA_OF_ASC_NODE":"344.9656","TLE_LINE2":"2 56797  70.0005 344.9656 0003862 274.0762  85.9992 15.69945445  4123","MEAN_MOTION_DOT":"0.00012666","CLASSIFICATION_TYPE":"U","REF_FRAME":"TEME","TIME_SYSTEM":"UTC","DECAY_DATE":null,"BSTAR":"0.00010684000000","INCLINATION":"70.0005","ECCENTRICITY":"0.00038620","TLE_LINE1":"1 56797U 23078AG  23175.57812696  .00012666  00000-0  10684-3 0  9999","MEAN_MOTION_DDOT":"0.0000000000000","ELEMENT_SET_NO":"999","PERIOD":"91.723","COUNTRY_CODE":"US","APOAPSIS":"361.657","SEMIMAJOR_AXIS":"6737.190","OBJECT_NAME":"STARLINK-6058","MEAN_ANOMALY":"85.9992","REV_AT_EPOCH":"412","LAUNCH_DATE":"2023-05-31","OBJECT_ID":"2023-078AG","GP_ID":"234528461","EPHEMERIS_TYPE":"0","CENTER_NAME":"EARTH","NORAD_CAT_ID":"56797","SITE":"AFWTR"},{"NORAD_CAT_ID":"56798","CENTER_NAME":"EARTH","SITE":"AFWTR","EPHEMERIS_TYPE":"0","GP_ID":"234520661","OBJECT_ID":"2023-078AH","LAUNCH_DATE":"2023-05-31","REV_AT_EPOCH":"407","MEAN_ANOMALY":"85.1370","OBJECT_NAME":"STARLINK-6068","SEMIMAJOR_AXIS":"6737.243","APOAPSIS":"361.525","COUNTRY_CODE":"US","PERIOD":"91.724","ELEMENT_SET_NO":"999","MEAN_MOTION_DDOT":"0.0000000000000","TLE_LINE1":"1 56798U 23078AH  23175.26007456  .00011626  00000-0  98311-4 0  9995","ECCENTRICITY":"0.00035870","INCLINATION":"70.0011","BSTAR":"0.00009831100000","TIME_SYSTEM":"UTC","DECAY_DATE":null,"REF_FRAME":"TEME","CLASSIFICATION_TYPE":"U","MEAN_MOTION_DOT":"0.00011626","TLE_LINE2":"2 56798  70.0011 345.8654 0003587 274.9416  85.1370 15.69926897  4074","RA_OF_ASC_NODE":"345.8654","MEAN_MOTION":"15.69926897","MEAN_ELEMENT_THEORY":"SGP4","FILE":"3941445","EPOCH":"2023-06-24T06:14:30.441984","PERIAPSIS":"356.691","OBJECT_TYPE":"PAYLOAD","ARG_OF_PERICENTER":"274.9416","RCS_SIZE":"LARGE"},{"REF_FRAME":"TEME","DECAY_DATE":null,"TIME_SYSTEM":"UTC","BSTAR":"0.00001662300000","INCLINATION":"70.0005","ECCENTRICITY":"0.00038570","MEAN_MOTION_DDOT":"0.0000000000000","TLE_LINE1":"1 56799U 23078AJ  23175.25817643  .00001786  00000-0  16623-4 0  9994","RCS_SIZE":"LARGE","ARG_OF_PERICENTER":"271.2277","OBJECT_TYPE":"PAYLOAD","PERIAPSIS":"356.517","EPOCH":"2023-06-24T06:11:46.443552","FILE":"3941445","MEAN_ELEMENT_THEORY":"SGP4","MEAN_MOTION":"15.69924350","RA_OF_ASC_NODE":"345.8556","TLE_LINE2":"2 56799  70.0005 345.8556 0003857 271.2277  88.8477 15.69924350  4074","MEAN_MOTION_DOT":"0.00001786","CLASSIFICATION_TYPE":"U","MEAN_ANOMALY":"88.8477","LAUNCH_DATE":"2023-05-31","REV_AT_EPOCH":"407","OBJECT_ID":"2023-078AJ","GP_ID":"234520667","EPHEMERIS_TYPE":"0","SITE":"AFWTR","NORAD_CAT_ID":"56799","CENTER_NAME":"EARTH","PERIOD":"91.724","ELEMENT_SET_NO":"999","COUNTRY_CODE":"US","APOAPSIS":"361.714","SEMIMAJOR_AXIS":"6737.250","OBJECT_NAME":"STARLINK-5953"},{"TLE_LINE2":"2 56800  70.0004 345.8633 0003946 274.4881  85.5864 15.69922788  4074","RA_OF_ASC_NODE":"345.8633","MEAN_MOTION":"15.69922788","CLASSIFICATION_TYPE":"U","MEAN_MOTION_DOT":"0.00004800","ARG_OF_PERICENTER":"274.4881","RCS_SIZE":"LARGE","PERIAPSIS":"356.461","EPOCH":"2023-06-24T06:14:21.305184","FILE":"3941430","MEAN_ELEMENT_THEORY":"SGP4","OBJECT_TYPE":"PAYLOAD","BSTAR":"0.00004166300000","INCLINATION":"70.0004","DECAY_DATE":null,"TIME_SYSTEM":"UTC","TLE_LINE1":"1 56800U 23078AK  23175.25996881  .00004800  00000-0  41663-4 0  9991","MEAN_MOTION_DDOT":"0.0000000000000","ECCENTRICITY":"0.00039460","REF_FRAME":"TEME","SEMIMAJOR_AXIS":"6737.255","OBJECT_NAME":"STARLINK-6036","ELEMENT_SET_NO":"999","PERIOD":"91.724","APOAPSIS":"361.778","COUNTRY_CODE":"US","GP_ID":"234519895","SITE":"AFWTR","CENTER_NAME":"EARTH","NORAD_CAT_ID":"56800","EPHEMERIS_TYPE":"0","MEAN_ANOMALY":"85.5864","OBJECT_ID":"2023-078AK","REV_AT_EPOCH":"407","LAUNCH_DATE":"2023-05-31"},{"GP_ID":"234520089","EPHEMERIS_TYPE":"0","NORAD_CAT_ID":"56801","CENTER_NAME":"EARTH","SITE":"AFWTR","MEAN_ANOMALY":"94.3397","LAUNCH_DATE":"2023-05-31","REV_AT_EPOCH":"407","OBJECT_ID":"2023-078AL","SEMIMAJOR_AXIS":"6737.238","OBJECT_NAME":"STARLINK-6087","ELEMENT_SET_NO":"999","PERIOD":"91.724","COUNTRY_CODE":"US","APOAPSIS":"361.569","TIME_SYSTEM":"UTC","DECAY_DATE":null,"INCLINATION":"70.0012","BSTAR":"0.00005397600000","ECCENTRICITY":"0.00036600","TLE_LINE1":"1 56801U 23078AL  23175.25891430  .00006284  00000-0  53976-4 0  9994","MEAN_MOTION_DDOT":"0.0000000000000","REF_FRAME":"TEME","MEAN_MOTION":"15.69928580","TLE_LINE2":"2 56801  70.0012 345.8584 0003660 265.7380  94.3397 15.69928580  4074","RA_OF_ASC_NODE":"345.8584","MEAN_MOTION_DOT":"0.00006284","CLASSIFICATION_TYPE":"U","RCS_SIZE":"LARGE","ARG_OF_PERICENTER":"265.7380","OBJECT_TYPE":"PAYLOAD","FILE":"3941430","MEAN_ELEMENT_THEORY":"SGP4","EPOCH":"2023-06-24T06:12:50.195520","PERIAPSIS":"356.638"},{"SEMIMAJOR_AXIS":"6737.219","OBJECT_NAME":"STARLINK-6070","ELEMENT_SET_NO":"999","PERIOD":"91.724","APOAPSIS":"361.613","COUNTRY_CODE":"US","GP_ID":"234520692","SITE":"AFWTR","NORAD_CAT_ID":"56802","CENTER_NAME":"EARTH","EPHEMERIS_TYPE":"0","MEAN_ANOMALY":"89.7979","OBJECT_ID":"2023-078AM","LAUNCH_DATE":"2023-05-31","REV_AT_EPOCH":"407","RA_OF_ASC_NODE":"345.8621","TLE_LINE2":"2 56802  70.0011 345.8621 0003753 270.2786  89.7979 15.69935307  4079","MEAN_MOTION":"15.69935307","CLASSIFICATION_TYPE":"U","MEAN_MOTION_DOT":"0.00018131","ARG_OF_PERICENTER":"270.2786","RCS_SIZE":"LARGE","PERIAPSIS":"356.556","EPOCH":"2023-06-24T06:13:54.033888","FILE":"3941439","MEAN_ELEMENT_THEORY":"SGP4","OBJECT_TYPE":"PAYLOAD","INCLINATION":"70.0011","BSTAR":"0.00015215000000","DECAY_DATE":null,"TIME_SYSTEM":"UTC","MEAN_MOTION_DDOT":"0.0000000000000","TLE_LINE1":"1 56802U 23078AM  23175.25965317  .00018131  00000-0  15215-3 0  9998","ECCENTRICITY":"0.00037530","REF_FRAME":"TEME"},{"MEAN_ANOMALY":"89.2252","LAUNCH_DATE":"2023-05-31","REV_AT_EPOCH":"397","OBJECT_ID":"2023-078AN","GP_ID":"234505938","EPHEMERIS_TYPE":"0","CENTER_NAME":"EARTH","NORAD_CAT_ID":"56803","SITE":"AFWTR","ELEMENT_SET_NO":"999","PERIOD":"91.724","COUNTRY_CODE":"US","APOAPSIS":"361.589","SEMIMAJOR_AXIS":"6737.264","OBJECT_NAME":"STARLINK-6029","REF_FRAME":"TEME","TIME_SYSTEM":"UTC","DECAY_DATE":null,"INCLINATION":"70.0011","BSTAR":"0.00002628800000","ECCENTRICITY":"0.00036520","MEAN_MOTION_DDOT":"0.0000000000000","TLE_LINE1":"1 56803U 23078AN  23174.62195826  .00002949  00000-0  26288-4 0  9992","RCS_SIZE":"LARGE","ARG_OF_PERICENTER":"270.8525","OBJECT_TYPE":"PAYLOAD","MEAN_ELEMENT_THEORY":"SGP4","FILE":"3940850","EPOCH":"2023-06-23T14:55:37.193664","PERIAPSIS":"356.668","MEAN_MOTION":"15.69919777","RA_OF_ASC_NODE":"347.6511","TLE_LINE2":"2 56803  70.0011 347.6511 0003652 270.8525  89.2252 15.69919777  3973","MEAN_MOTION_DOT":"0.00002949","CLASSIFICATION_TYPE":"U"},{"REF_FRAME":"TEME","MEAN_MOTION_DDOT":"0.0000000000000","TLE_LINE1":"1 56804U 23078AP  23175.25975739  .00007990  00000-0  68127-4 0  9991","ECCENTRICITY":"0.00037630","INCLINATION":"70.0011","BSTAR":"0.00006812700000","DECAY_DATE":null,"TIME_SYSTEM":"UTC","PERIAPSIS":"356.559","EPOCH":"2023-06-24T06:14:03.038496","FILE":"3941430","MEAN_ELEMENT_THEORY":"SGP4","OBJECT_TYPE":"PAYLOAD","ARG_OF_PERICENTER":"272.0654","RCS_SIZE":"LARGE","CLASSIFICATION_TYPE":"U","MEAN_MOTION_DOT":"0.00007990","TLE_LINE2":"2 56804  70.0011 345.8632 0003763 272.0654  88.0111 15.69931679  4076","RA_OF_ASC_NODE":"345.8632","MEAN_MOTION":"15.69931679","OBJECT_ID":"2023-078AP","REV_AT_EPOCH":"407","LAUNCH_DATE":"2023-05-31","MEAN_ANOMALY":"88.0111","SITE":"AFWTR","CENTER_NAME":"EARTH","NORAD_CAT_ID":"56804","EPHEMERIS_TYPE":"0","GP_ID":"234519885","APOAPSIS":"361.630","COUNTRY_CODE":"US","PERIOD":"91.724","ELEMENT_SET_NO":"999","OBJECT_NAME":"STARLINK-6069","SEMIMAJOR_AXIS":"6737.229"},{"CENTER_NAME":"EARTH","NORAD_CAT_ID":"56805","SITE":"AFWTR","EPHEMERIS_TYPE":"0","GP_ID":"234527491","OBJECT_ID":"2023-078AQ","REV_AT_EPOCH":"412","LAUNCH_DATE":"2023-05-31","MEAN_ANOMALY":"87.9132","OBJECT_NAME":"STARLINK-6064","SEMIMAJOR_AXIS":"6737.232","APOAPSIS":"361.556","COUNTRY_CODE":"US","PERIOD":"91.724","ELEMENT_SET_NO":"999","MEAN_MOTION_DDOT":"0.0000000000000","TLE_LINE1":"1 56805U 23078AQ  23175.57781400  .00014664  00000-0  12347-3 0  9995","ECCENTRICITY":"0.00036490","BSTAR":"0.00012347000000","INCLINATION":"70.0006","TIME_SYSTEM":"UTC","DECAY_DATE":null,"REF_FRAME":"TEME","CLASSIFICATION_TYPE":"U","MEAN_MOTION_DOT":"0.00014664","RA_OF_ASC_NODE":"344.9647","TLE_LINE2":"2 56805  70.0006 344.9647 0003649 272.1645  87.9132 15.69930661  4128","MEAN_MOTION":"15.69930661","FILE":"3941710","MEAN_ELEMENT_THEORY":"SGP4","PERIAPSIS":"356.639","EPOCH":"2023-06-24T13:52:03.129600","OBJECT_TYPE":"PAYLOAD","ARG_OF_PERICENTER":"272.1645","RCS_SIZE":"LARGE"},{"OBJECT_NAME":"STARLINK-6072","SEMIMAJOR_AXIS":"6737.257","COUNTRY_CODE":"US","APOAPSIS":"361.715","ELEMENT_SET_NO":"999","PERIOD":"91.724","EPHEMERIS_TYPE":"0","SITE":"AFWTR","CENTER_NAME":"EARTH","NORAD_CAT_ID":"56806","GP_ID":"234505821","REV_AT_EPOCH":"397","LAUNCH_DATE":"2023-05-31","OBJECT_ID":"2023-078AR","MEAN_ANOMALY":"90.5519","MEAN_MOTION_DOT":"0.00009711","CLASSIFICATION_TYPE":"U","MEAN_MOTION":"15.69922128","RA_OF_ASC_NODE":"347.6526","TLE_LINE2":"2 56806  70.0008 347.6526 0003849 269.5235  90.5519 15.69922128  3974","OBJECT_TYPE":"PAYLOAD","PERIAPSIS":"356.529","EPOCH":"2023-06-23T14:56:04.567776","FILE":"3940835","MEAN_ELEMENT_THEORY":"SGP4","RCS_SIZE":"LARGE","ARG_OF_PERICENTER":"269.5235","ECCENTRICITY":"0.00038490","TLE_LINE1":"1 56806U 23078AR  23174.62227509  .00009711  00000-0  82437-4 0  9991","MEAN_MOTION_DDOT":"0.0000000000000","DECAY_DATE":null,"TIME_SYSTEM":"UTC","INCLINATION":"70.0008","BSTAR":"0.00008243700000","REF_FRAME":"TEME"}];
